{
  "type": "FeatureCollection",
  "features": [
    {
      "type": "Feature",
      "properties": {
        "norad_id": 35616,
        "name": "IRIDIUM 33 DEB",
        "group": "iridium-33-debris",
        "lat": 71.19731243348502,
        "lon": -7.075882101901011,
        "alt_km": 612.9520406631254,
        "timestamp": "2025-12-20T16:47:36.670021+00:00",
        "meta_object_name": "IRIDIUM 33 DEB",
        "meta_object_id": "1997-051QN",
        "meta_epoch": "2025-12-19T06:26:26.767968",
        "meta_mean_motion": 14.81969913,
        "meta_eccentricity": 0.0011079,
        "meta_inclination": 86.3543,
        "meta_ra_of_asc_node": 342.7845,
        "meta_arg_of_pericenter": 141.4908,
        "meta_mean_anomaly": 218.7107,
        "meta_ephemeris_type": 0,
        "meta_classification_type": "U",
        "meta_norad_cat_id": 35616,
        "meta_element_set_no": 999,
        "meta_rev_at_epoch": 87671,
        "meta_bstar": 0.0011657,
        "meta_mean_motion_dot": 9.278e-05,
        "meta_mean_motion_ddot": 0,
        "tle_line1": "1 35616U 97051QN  25353.26836537  .00009278  00000+0  11657-2 0  9998",
        "tle_line2": "2 35616  86.3543 342.7845 0011079 141.4908 218.7107 14.81969913876716"
      },
      "geometry": {
        "type": "Point",
        "coordinates": [
          -7.075882101901011,
          71.19731243348502
        ]
      }
    },
    {
      "type": "Feature",
      "properties": {
        "norad_id": 35618,
        "name": "IRIDIUM 33 DEB",
        "group": "iridium-33-debris",
        "lat": 70.63958105526301,
        "lon": 0.5150457419152964,
        "alt_km": 706.4588958873001,
        "timestamp": "2025-12-20T16:47:36.670036+00:00",
        "meta_object_name": "IRIDIUM 33 DEB",
        "meta_object_id": "1997-051QQ",
        "meta_epoch": "2025-12-13T19:06:39.662496",
        "meta_mean_motion": 14.52305973,
        "meta_eccentricity": 0.00288889,
        "meta_inclination": 86.3427,
        "meta_ra_of_asc_node": 353.0427,
        "meta_arg_of_pericenter": 17.6332,
        "meta_mean_anomaly": 342.5869,
        "meta_ephemeris_type": 0,
        "meta_classification_type": "U",
        "meta_norad_cat_id": 35618,
        "meta_element_set_no": 999,
        "meta_rev_at_epoch": 65409,
        "meta_bstar": 0.0005678553,
        "meta_mean_motion_dot": 2.341e-05,
        "meta_mean_motion_ddot": 0,
        "tle_line1": "1 35618U 97051QQ  25347.79629239  .00002341  00000+0  56786-3 0  9997",
        "tle_line2": "2 35618  86.3427 353.0427 0028888  17.6332 342.5869 14.52305973654095"
      },
      "geometry": {
        "type": "Point",
        "coordinates": [
          0.5150457419152964,
          70.63958105526301
        ]
      }
    },
    {
      "type": "Feature",
      "properties": {
        "norad_id": 35620,
        "name": "IRIDIUM 33 DEB",
        "group": "iridium-33-debris",
        "lat": 9.881173242703207,
        "lon": -145.27329685807516,
        "alt_km": 838.5506909463274,
        "timestamp": "2025-12-20T16:47:36.670053+00:00",
        "meta_object_name": "IRIDIUM 33 DEB",
        "meta_object_id": "1997-051QS",
        "meta_epoch": "2025-12-18T07:58:30.597312",
        "meta_mean_motion": 14.38231155,
        "meta_eccentricity": 0.01396071,
        "meta_inclination": 86.3909,
        "meta_ra_of_asc_node": 215.0948,
        "meta_arg_of_pericenter": 240.37,
        "meta_mean_anomaly": 118.3533,
        "meta_ephemeris_type": 0,
        "meta_classification_type": "U",
        "meta_norad_cat_id": 35620,
        "meta_element_set_no": 999,
        "meta_rev_at_epoch": 60046,
        "meta_bstar": 0.0042608437,
        "meta_mean_motion_dot": 0.00014532,
        "meta_mean_motion_ddot": 0,
        "tle_line1": "1 35620U 97051QS  25352.33229858  .00014532  00000+0  42608-2 0  9991",
        "tle_line2": "2 35620  86.3909 215.0948 0139607 240.3700 118.3533 14.38231155600467"
      },
      "geometry": {
        "type": "Point",
        "coordinates": [
          -145.27329685807516,
          9.881173242703207
        ]
      }
    },
    {
      "type": "Feature",
      "properties": {
        "norad_id": 35622,
        "name": "IRIDIUM 33 DEB",
        "group": "iridium-33-debris",
        "lat": -30.42412700954184,
        "lon": 81.91436987706228,
        "alt_km": 556.1694207910787,
        "timestamp": "2025-12-20T16:47:36.670069+00:00",
        "meta_object_name": "IRIDIUM 33 DEB",
        "meta_object_id": "1997-051QU",
        "meta_epoch": "2025-12-19T11:54:56.844000",
        "meta_mean_motion": 15.05406521,
        "meta_eccentricity": 0.0004384,
        "meta_inclination": 86.2024,
        "meta_ra_of_asc_node": 260.2722,
        "meta_arg_of_pericenter": 306.062,
        "meta_mean_anomaly": 227.6567,
        "meta_ephemeris_type": 0,
        "meta_classification_type": "U",
        "meta_norad_cat_id": 35622,
        "meta_element_set_no": 999,
        "meta_rev_at_epoch": 87461,
        "meta_bstar": 0.0026207,
        "meta_mean_motion_dot": 0.00037763,
        "meta_mean_motion_ddot": 0,
        "tle_line1": "1 35622U 97051QU  25353.49649125  .00037763  00000+0  26207-2 0  9992",
        "tle_line2": "2 35622  86.2024 260.2722 0004384 306.0620 227.6567 15.05406521874619"
      },
      "geometry": {
        "type": "Point",
        "coordinates": [
          81.91436987706228,
          -30.42412700954184
        ]
      }
    },
    {
      "type": "Feature",
      "properties": {
        "norad_id": 35628,
        "name": "IRIDIUM 33 DEB",
        "group": "iridium-33-debris",
        "lat": 46.20881815646144,
        "lon": 9.33621011660169,
        "alt_km": 664.9570326392995,
        "timestamp": "2025-12-20T16:47:36.670088+00:00",
        "meta_object_name": "IRIDIUM 33 DEB",
        "meta_object_id": "1997-051RA",
        "meta_epoch": "2025-12-20T06:45:55.792800",
        "meta_mean_motion": 14.67680924,
        "meta_eccentricity": 0.0009637,
        "meta_inclination": 86.3562,
        "meta_ra_of_asc_node": 5.7112,
        "meta_arg_of_pericenter": 314.2717,
        "meta_mean_anomaly": 45.7705,
        "meta_ephemeris_type": 0,
        "meta_classification_type": "U",
        "meta_norad_cat_id": 35628,
        "meta_element_set_no": 999,
        "meta_rev_at_epoch": 86557,
        "meta_bstar": 0.00085133,
        "meta_mean_motion_dot": 4.868e-05,
        "meta_mean_motion_ddot": 0,
        "tle_line1": "1 35628U 97051RA  25354.28189575  .00004868  00000+0  85133-3 0  9998",
        "tle_line2": "2 35628  86.3562   5.7112 0009637 314.2717  45.7705 14.67680924865578"
      },
      "geometry": {
        "type": "Point",
        "coordinates": [
          9.33621011660169,
          46.20881815646144
        ]
      }
    },
    {
      "type": "Feature",
      "properties": {
        "norad_id": 35631,
        "name": "IRIDIUM 33 DEB",
        "group": "iridium-33-debris",
        "lat": 80.26643918851164,
        "lon": 39.292469265658006,
        "alt_km": 713.7365002910892,
        "timestamp": "2025-12-20T16:47:36.670106+00:00",
        "meta_object_name": "IRIDIUM 33 DEB",
        "meta_object_id": "1997-051RD",
        "meta_epoch": "2025-12-20T01:46:23.422080",
        "meta_mean_motion": 14.47329545,
        "meta_eccentricity": 0.00192479,
        "meta_inclination": 86.3662,
        "meta_ra_of_asc_node": 17.8175,
        "meta_arg_of_pericenter": 96.1931,
        "meta_mean_anomaly": 326.0143,
        "meta_ephemeris_type": 0,
        "meta_classification_type": "U",
        "meta_norad_cat_id": 35631,
        "meta_element_set_no": 999,
        "meta_rev_at_epoch": 87303,
        "meta_bstar": 0.00024996785,
        "meta_mean_motion_dot": 9.37e-06,
        "meta_mean_motion_ddot": 0,
        "tle_line1": "1 35631U 97051RD  25354.07388220  .00000937  00000+0  24997-3 0  9991",
        "tle_line2": "2 35631  86.3662  17.8175 0019247  96.1931 326.0143 14.47329545873036"
      },
      "geometry": {
        "type": "Point",
        "coordinates": [
          39.292469265658006,
          80.26643918851164
        ]
      }
    },
    {
      "type": "Feature",
      "properties": {
        "norad_id": 35680,
        "name": "IRIDIUM 33 DEB",
        "group": "iridium-33-debris",
        "lat": 19.58616735312918,
        "lon": 19.388780613626615,
        "alt_km": 885.6708935517836,
        "timestamp": "2025-12-20T16:47:36.670122+00:00",
        "meta_object_name": "IRIDIUM 33 DEB",
        "meta_object_id": "1997-051RJ",
        "meta_epoch": "2025-12-17T20:16:19.922592",
        "meta_mean_motion": 14.21000805,
        "meta_eccentricity": 0.01505036,
        "meta_inclination": 86.1025,
        "meta_ra_of_asc_node": 19.2625,
        "meta_arg_of_pericenter": 262.1515,
        "meta_mean_anomaly": 279.7609,
        "meta_ephemeris_type": 0,
        "meta_classification_type": "U",
        "meta_norad_cat_id": 35680,
        "meta_element_set_no": 999,
        "meta_rev_at_epoch": 60773,
        "meta_bstar": 0.0028027984,
        "meta_mean_motion_dot": 6.829e-05,
        "meta_mean_motion_ddot": 0,
        "tle_line1": "1 35680U 97051RJ  25351.84467503  .00006829  00000+0  28028-2 0  9993",
        "tle_line2": "2 35680  86.1025  19.2625 0150503 262.1515 279.7609 14.21000805607731"
      },
      "geometry": {
        "type": "Point",
        "coordinates": [
          19.388780613626615,
          19.58616735312918
        ]
      }
    }
  ]
}